NORAD_CAT_ID,OBJECT_NAME,OBJECT_TYPE,EPOCH,MEAN_MOTION,ECCENTRICITY,INCLINATION,RA_OF_ASC_NODE,ARG_OF_PERICENTER,MEAN_ANOMALY,BSTAR,MEAN_MOTION_DOT,MEAN_MOTION_DDOT,TLE_LINE0,TLE_LINE1,TLE_LINE2,SEMIMAJOR_AXIS,PERIOD,APOGEE,PERIGEE,DECAYED
54761.0,STARLINK-5202,PAYLOAD,2024-03-11 05:36:18,15.08828832,0.0001408,53.2166,74.5153,107.8586,252.2559,-0.00012158,-2.222e-05,0.0,0 STARLINK-5202,1 54761U 22175D   24071.23354634 -.00002222  00000-0 -12158-3 0  9994,2 54761  53.2166  74.5153 0001408 107.8586 252.2559 15.08828832 67784,6917.915,95.438,540.754,538.805,0.0
54761.0,STARLINK-5202,PAYLOAD,2024-03-11 07:11:41,15.08827717,0.0001362,53.2161,74.2183,84.527,275.5878,-0.00022129,-3.807e-05,0.0,0 STARLINK-5202,1 54761U 22175D   24071.29978762 -.00003807  00000-0 -22129-3 0  9993,2 54761  53.2161  74.2183 0001362  84.5270 275.5878 15.08827717 69953,6917.918,95.438,540.725,538.841,0.0
54761.0,STARLINK-5202,PAYLOAD,2024-03-12 03:51:42,15.08838106,0.0001255,53.2157,70.3518,73.2243,286.8886,-7.5799e-05,-1.494e-05,0.0,0 STARLINK-5202,1 54761U 22175D   24072.16090548 -.00001494  00000-0 -75799-4 0  9999,2 54761  53.2157  70.3518 0001255  73.2243 286.8886 15.08838106 67926,6917.886,95.438,540.619,538.883,0.0
54761.0,STARLINK-5202,PAYLOAD,2024-03-12 16:34:47,15.08844951,0.0001312,53.2166,67.9724,77.0776,283.0362,3.6507e-06,-2.3e-06,0.0,0 STARLINK-5202,1 54761U 22175D   24072.69082342 -.00000230  00000-0  36507-5 0  9991,2 54761  53.2166  67.9724 0001312  77.0776 283.0362 15.08844951 70167,6917.865,95.437,540.638,538.823,0.0
54761.0,STARLINK-5202,PAYLOAD,2024-03-13 05:17:52,15.08840349,0.0001447,53.2167,65.5933,74.5079,285.6072,0.00029737,4.448e-05,0.0,0 STARLINK-5202,1 54761U 22175D   24073.22075051  .00004448  00000-0  29737-3 0  9999,2 54761  53.2167  65.5933 0001447  74.5079 285.6072 15.08840349 68082,6917.879,95.438,540.745,538.743,0.0
54761.0,STARLINK-5202,PAYLOAD,2024-03-13 16:25:34,15.08844186,0.0001465,53.2171,63.5148,88.3664,271.7496,0.00024057,3.543e-05,0.0,0 STARLINK-5202,1 54761U 22175D   24073.68442923  .00003543  00000-0  24057-3 0  9990,2 54761  53.2171  63.5148 0001465  88.3664 271.7496 15.08844186 70314,6917.868,95.437,540.746,538.719,0.0
54761.0,STARLINK-5202,PAYLOAD,2024-03-14 06:44:03,15.08840143,0.0001598,53.2176,60.8379,91.1759,268.9417,0.00030795,4.616e-05,0.0,0 STARLINK-5202,1 54761U 22175D   24074.28059120  .00004616  00000-0  30795-3 0  9998,2 54761  53.2176  60.8379 0001598  91.1759 268.9417 15.08840143 68248,6917.88,95.438,540.85,538.639,0.0
54761.0,STARLINK-5202,PAYLOAD,2024-03-14 22:37:54,15.08835838,0.0001474,53.2177,57.8657,98.3238,261.7921,8.2141e-06,-1.57e-06,0.0,0 STARLINK-5202,1 54761U 22175D   24074.94299347 -.00000157  00000-0  82141-5 0  9999,2 54761  53.2177  57.8657 0001474  98.3238 261.7921 15.08835838 70506,6917.893,95.438,540.778,538.738,0.0
54761.0,STARLINK-5202,PAYLOAD,2024-03-15 04:59:27,15.08837116,0.000158,53.2187,56.6762,93.9154,266.2019,5.7306e-05,6.24e-06,0.0,0 STARLINK-5202,1 54761U 22175D   24075.20795579  .00000624  00000-0  57306-4 0  9999,2 54761  53.2187  56.6762 0001580  93.9154 266.2019 15.08837116 68389,6917.889,95.438,540.847,538.661,0.0
54761.0,STARLINK-5202,PAYLOAD,2024-03-16 04:50:13,15.08851571,0.0001491,53.2184,52.2153,96.759,263.3572,0.00016651,2.364e-05,0.0,0 STARLINK-5202,1 54761U 22175D   24076.20154914  .00002364  00000-0  16651-3 0  9992,2 54761  53.2184  52.2153 0001491  96.7590 263.3572 15.08851571 68538,6917.845,95.437,540.741,538.679,0.0
54761.0,STARLINK-5202,PAYLOAD,2024-03-16 08:01:00,15.08838473,0.0001668,53.2183,51.6196,104.9631,255.1546,0.00077144,0.0001201,0.0,0 STARLINK-5202,1 54761U 22175D   24076.33403695  .00012010  00000-0  77144-3 0  9992,2 54761  53.2183  51.6196 0001668 104.9631 255.1546 15.08838473 68559,6917.885,95.438,540.904,538.596,0.0
54761.0,STARLINK-5202,PAYLOAD,2024-03-17 07:51:47,15.08843272,0.0001423,53.2184,47.1582,104.9945,255.1204,0.00010861,1.441e-05,0.0,0 STARLINK-5202,1 54761U 22175D   24077.32763216  .00001441  00000-0  10861-3 0  9999,2 54761  53.2184  47.1582 0001423 104.9945 255.1204 15.08843272 68707,6917.87,95.437,540.72,538.751,0.0
54761.0,STARLINK-5202,PAYLOAD,2024-03-18 02:56:25,15.08830458,0.0002095,53.2188,43.5873,129.3833,230.7345,0.00030547,4.576e-05,0.0,0 STARLINK-5202,1 54761U 22175D   24078.12251701  .00004576  00000-0  30547-3 0  9994,2 54761  53.2188  43.5873 0002095 129.3833 230.7345 15.08830458 68827,6917.91,95.438,541.224,538.325,0.0
54761.0,STARLINK-5202,PAYLOAD,2024-03-18 22:01:03,15.08838051,0.0001579,53.2182,40.0219,107.6498,252.4667,8.5419e-05,1.072e-05,0.0,0 STARLINK-5202,1 54761U 22175D   24078.91739591  .00001072  00000-0  85419-4 0  9996,2 54761  53.2182  40.0219 0001579 107.6498 252.4667 15.08838051 71109,6917.886,95.438,540.844,538.659,0.0
54761.0,STARLINK-5202,PAYLOAD,2024-03-19 02:47:12,15.08841597,0.0001489,53.219,39.1302,103.7522,256.3636,0.00011978,1.619e-05,0.0,0 STARLINK-5202,1 54761U 22175D   24079.11611430  .00001619  00000-0  11978-3 0  9995,2 54761  53.2190  39.1302 0001489 103.7522 256.3636 15.08841597 71136,6917.876,95.437,540.771,538.71,0.0
54761.0,STARLINK-5202,PAYLOAD,2024-03-19 21:51:50,15.08810207,0.0001555,53.219,35.5637,95.8221,264.2948,0.0007045,0.00010933,0.0,0 STARLINK-5202,1 54761U 22175D   24079.91099872  .00010933  00000-0  70450-3 0  9992,2 54761  53.2190  35.5637 0001555  95.8221 264.2948 15.08810207 69098,6917.971,95.439,540.912,538.761,0.0
54761.0,STARLINK-5202,PAYLOAD,2024-03-20 01:02:35,15.08847905,0.0001402,53.2183,34.9686,96.0694,264.0458,0.00019464,2.812e-05,0.0,0 STARLINK-5202,1 54761U 22175D   24080.04347092  .00002812  00000-0  19464-3 0  9993,2 54761  53.2183  34.9686 0001402  96.0694 264.0458 15.08847905 69117,6917.856,95.437,540.691,538.751,0.0
54761.0,STARLINK-5202,PAYLOAD,2024-03-20 05:48:46,15.08835684,0.0001531,53.2184,34.077,92.43,267.6868,0.00090647,0.00014166,0.0,0 STARLINK-5202,1 54761U 22175D   24080.24219917  .00014166  00000-0  90647-3 0  9996,2 54761  53.2184  34.0770 0001531  92.4300 267.6868 15.08835684 69148,6917.894,95.438,540.818,538.699,0.0
54761.0,STARLINK-5202,PAYLOAD,2024-03-21 04:04:09,15.08836376,0.0001406,53.2182,29.9129,89.7734,270.342,-1.2718e-05,-4.9e-06,0.0,0 STARLINK-5202,1 54761U 22175D   24081.16955764 -.00000490  00000-0 -12718-4 0  9996,2 54761  53.2182  29.9129 0001406  89.7734 270.3420 15.08836376 69287,6917.891,95.438,540.729,538.784,0.0
54761.0,STARLINK-5202,PAYLOAD,2024-03-21 05:39:32,15.08841105,0.0001491,53.2187,29.6153,96.2021,263.9141,8.7565e-05,1.106e-05,0.0,0 STARLINK-5202,1 54761U 22175D   24081.23579596  .00001106  00000-0  87565-4 0  9994,2 54761  53.2187  29.6153 0001491  96.2021 263.9141 15.08841105 71458,6917.877,95.437,540.773,538.711,0.0
54761.0,STARLINK-5202,PAYLOAD,2024-03-22 03:54:56,15.08864054,0.0001461,53.2193,25.449,91.0968,269.0192,0.0007785,0.00012132,0.0,0 STARLINK-5202,1 54761U 22175D   24082.16314950  .00012132  00000-0  77850-3 0  9994,2 54761  53.2193  25.4490 0001461  91.0968 269.0192 15.08864054 69439,6917.807,95.436,540.683,538.661,0.0
54761.0,STARLINK-5202,PAYLOAD,2024-03-22 05:30:19,15.08866944,0.000137,53.2186,25.1525,99.0247,261.09,0.00083198,0.00012987,0.0,0 STARLINK-5202,1 54761U 22175D   24082.22938719  .00012987  00000-0  83198-3 0  9996,2 54761  53.2186  25.1525 0001370  99.0247 261.0900 15.08866944 71605,6917.798,95.436,540.611,538.715,0.0
54761.0,STARLINK-5202,PAYLOAD,2024-03-22 19:48:48,15.08821106,0.0001307,53.2182,22.479,104.4697,255.644,-0.00026136,-4.443e-05,0.0,0 STARLINK-5202,1 54761U 22175D   24082.82556576 -.00004443  00000-0 -26136-3 0  9998,2 54761  53.2182  22.4790 0001307 104.4697 255.6440 15.08821106 69533,6917.938,95.439,540.707,538.899,0.0
54761.0,STARLINK-5202,PAYLOAD,2024-03-23 05:21:07,15.08828145,0.000159,53.2188,20.693,118.5516,241.5637,-1.1121e-05,-4.65e-06,0.0,0 STARLINK-5202,1 54761U 22175D   24083.22300740 -.00000465  00000-0 -11121-4 0  9992,2 54761  53.2188  20.6930 0001590 118.5516 241.5637 15.08828145 69593,6917.917,95.438,540.882,538.682,0.0
54761.0,STARLINK-5202,PAYLOAD,2024-03-24 05:11:53,15.088922,0.0001575,53.2187,16.2318,115.6502,244.4653,0.0017747,0.0002811,0.0,0 STARLINK-5202,1 54761U 22175D   24084.21659419  .00028110  00000-0  17747-2 0  9995,2 54761  53.2187  16.2318 0001575 115.6502 244.4653 15.08892200 69749,6917.721,95.434,540.675,538.496,0.0
54761.0,STARLINK-5202,PAYLOAD,2024-03-24 22:41:08,15.08872638,0.0001833,53.2195,12.9644,86.9709,273.1493,0.0012648,0.00019917,0.0,0 STARLINK-5202,1 54761U 22175D   24084.94523850  .00019917  00000-0  12648-2 0  9994,2 54761  53.2195  12.9644 0001833  86.9709 273.1493 15.08872638 72017,6917.781,95.435,540.914,538.378,0.0
54761.0,STARLINK-5202,PAYLOAD,2024-03-25 05:02:41,15.08848706,0.0001952,53.2192,11.7745,81.2365,278.8848,0.0014829,0.00023397,0.0,0 STARLINK-5202,1 54761U 22175D   24085.21020220  .00023397  00000-0  14829-2 0  9998,2 54761  53.2192  11.7745 0001952  81.2365 278.8848 15.08848706 69898,6917.854,95.437,541.069,538.368,0.0
54761.0,STARLINK-5202,PAYLOAD,2024-03-25 22:31:57,15.08821627,0.0001904,53.2204,8.5105,81.733,278.3878,0.0011687,0.00018351,0.0,0 STARLINK-5202,1 54761U 22175D   24085.93885777  .00018351  00000-0  11687-2 0  9996,2 54761  53.2204   8.5105 0001904  81.7330 278.3878 15.08821627 72165,6917.937,95.439,541.119,538.484,0.0
54761.0,STARLINK-5202,PAYLOAD,2024-03-26 01:42:43,15.08843051,0.0002062,53.2185,7.9081,102.1208,258.0015,0.0018319,0.0002899,0.0,0 STARLINK-5202,1 54761U 22175D   24086.07133574  .00028990  00000-0  18319-2 0  9992,2 54761  53.2185   7.9081 0002062 102.1208 258.0015 15.08843051 70023,6917.871,95.437,541.163,538.31,0.0
54761.0,STARLINK-5202,PAYLOAD,2024-03-26 11:15:02,15.08846755,0.0001988,53.2185,6.1229,84.929,275.1929,0.00096615,0.00015125,0.0,0 STARLINK-5202,1 54761U 22175D   24086.46877596  .00015125  00000-0  96615-3 0  9996,2 54761  53.2185   6.1229 0001988  84.9290 275.1929 15.08846755 70086,6917.86,95.437,541.1,538.349,0.0
